HST                     
1 20580U 90037B   26179.87800082  .00006406  00000+0  20097-3 0  9998
2 20580  28.4733   0.6674 0001411 286.0347  74.0094 15.30881351790368
POLAR                   
1 23802U 96013A   26179.59050762  .00000183  00000+0  00000+0 0  9993
2 23802  79.8685 226.9180 6481807 208.6879  90.5765  1.29846071145002
SWAS                    
1 25560U 98071A   26180.47242808  .00002015  00000+0  13127-3 0  9999
2 25560  69.8939 195.8361 0008640 247.6351 112.3898 15.09680710499127
CXO                     
1 25867U 99040B   26182.60009460  .00000698  00000+0  00000+0 0  9995
2 25867  56.3386 116.3110 7812274 310.0948   0.4515  0.37794011 17375
XMM-NEWTON              
1 25989U 99066A   26181.31376484  .00000075  00000+0  00000+0 0  9997
2 25989  64.4187 282.8185 4670815  64.6474   0.0796  0.50127122 23075
TERRA                   
1 25994U 99068A   26180.56876391  .00000383  00000+0  86946-4 0  9993
2 25994  97.9450 229.6238 0002535 155.4896   5.5244 14.61112539411414
CLUSTER II-FM7 (SAMBA)  
1 26410U 00041A   26181.52661441  .00015728  00000+0  00000+0 0  9996
2 26410 149.8901  53.0517 9069081 270.4354 359.5654  0.44858661 20366
CLUSTER II-FM8 (TANGO)  
1 26464U 00045B   26177.44528680  .00007604  00000+0  00000+0 0  9996
2 26464 150.1217  53.5221 9068133 270.7042   2.5410  0.44425767 20352
ODIN                    
1 26702U 01007A   26179.63720620  .00214973  00000+0  11239-2 0  9999
2 26702  97.3796 221.3471 0006204 134.8757 225.3015 15.80233785391202
TIMED                   
1 26998U 01055B   26180.51930806  .00000967  00000+0  91294-4 0  9994
2 26998  74.0663 210.1876 0001736 318.8541  41.2513 14.95316278332666
CORIOLIS                
1 27640U 03001A   26180.52855612  .00000096  00000+0  65847-4 0  9992
2 27640  98.7126 187.2249 0014111 172.5973 187.5414 14.19948073215979
SORCE                   
1 27651U 03004A   26180.42588197  .00002246  00000+0  17116-3 0  9991
2 27651  39.9886 191.8479 0016633 143.4909 216.7022 15.03766932273749
MOST                    
1 27843U 03031D   26180.53071131  .00000062  00000+0  48289-4 0  9991
2 27843  98.7044 188.0843 0009188 211.0978 148.9656 14.21324886192464
SCISAT 1                
1 27858U 03036A   26180.31339682  .00000619  00000+0  83725-4 0  9998
2 27858  73.9292 147.2496 0008129 217.1909 142.8706 14.81461053233241
SWIFT                   
1 28485U 04047A   26180.45848352  .00046426  00000+0  36701-3 0  9999
2 28485  20.5523  90.1582 0001277 110.3470 249.7113 15.69501818188798
HINODE (SOLAR-B)        
1 29479U 06041A   26180.51718241  .00000715  00000+0  13127-3 0  9997
2 29479  98.0544 196.4879 0016062 247.0647 112.8864 14.68639254 56685
SHIJIAN-6 02A (SJ-6 02A)
1 29505U 06046A   26180.55823346  .00008555  00000+0  43506-3 0  9993
2 29505  97.6355 221.7177 0004841  96.5069 263.6715 15.17086927 74149
SHIJIAN-6 02B (SJ-6 02B)
1 29506U 06046B   26180.54262340  .00001436  00000+0  11581-3 0  9993
2 29506  97.7155 209.5252 0015170  25.4443 334.7524 15.01407101 72590
FGRST (GLAST)           
1 33053U 08029A   26180.21095016  .00002824  00000+0  99740-4 0  9992
2 33053  25.5815 120.9878 0008526 107.6941 252.4529 15.23996953997675
SDO                     
1 36395U 10005A   26180.25044631 -.00000093  00000+0  00000+0 0  9995
2 36395  34.6754  86.1597 0001503  50.1162 129.0044  1.00270638 60189
CRYOSAT 2               
1 36508U 10013A   26180.55604470  .00000098  00000+0  23494-4 0  9997
2 36508  92.0361 280.3083 0002152  95.8948 264.2504 14.51902776859874
X-SAT                   
1 37389U 11015C   26180.51144683 -.00000068  00000+0 -11306-4 0  9997
2 37389  98.3509 156.9480 0013173 311.2667  48.7379 14.25209178789438
GCOM-W1 (SHIZUKU)       
1 38337U 12025A   26180.40320124  .00000463  00000+0  11266-3 0  9998
2 38337  98.2022 120.7740 0001611  69.4070  44.4409 14.57135505750817
NUSTAR                  
1 38358U 12031A   26180.58335647  .00005719  00000+0  29877-3 0  9999
2 38358   6.0269 301.1597 0008524 290.5630 356.5898 15.08915099  1307
NEOSSAT                 
1 39089U 13009D   26180.47433051  .00000141  00000+0  63328-4 0  9997
2 39089  98.4180   0.2150 0010457 204.1436 155.9261 14.35830588698508
BRITE-AUSTRIA           
1 39091U 13009F   26180.46684300  .00000180  00000+0  75824-4 0  9991
2 39091  98.3998 359.5988 0009768 196.9876 163.0985 14.36546813698818
IRIS                    
1 39197U 13033A   26180.55554388  .00001021  00000+0  12297-3 0  9996
2 39197  97.9322  19.7936 0022980 279.2900  80.5717 14.85908831702215
HISAKI (SPRINT-A)       
1 39253U 13049A   26179.98646198  .00000090  00000+0  35549-4 0  9993
2 39253  29.7174 160.0204 0136862 112.5173 248.9948 13.55545620633027
CASSIOPE                
1 39265U 13055A   26180.49114418  .00041177 -44920-6  44490-3 0  9998
2 39265  80.9136  51.7686 0288026  21.0247 340.2542 15.26323254669542
STSAT-3                 
1 39422U 13066G   26180.49751699  .00002207  00000+0  16918-3 0  9991
2 39422  97.6212 150.1881 0010052   8.5715 351.5680 15.02821091686059
SWARM B                 
1 39451U 13067A   26180.50683377  .00003426  00000+0  12188-3 0  9992
2 39451  87.7443 338.5730 0002915  80.0767 280.0811 15.28625837685120
